{
  "norad_id": 65884,
  "name": "STARLINK-35384",
  "history": [
    {
      "epoch": "2026-03-28T19:55:46.940160Z",
      "apogee_km": 475.7331211987903,
      "perigee_km": 474.728828655745,
      "latitude_deg": -3.780916350780206e-05,
      "longitude_deg": 157.34006800390068,
      "height_km": 476.1633627909373,
      "semi_major_axis_km": 6853.367974927268,
      "eccentricity": 7.327e-05,
      "inclination_deg": 53.1579,
      "raan_deg": 282.5309,
      "arg_perigee_deg": 93.8615,
      "mean_anomaly_deg": 266.2469,
      "mean_motion_rev_day": 15.30194673
    },
    {
      "epoch": "2026-03-29T22:34:41.198304Z",
      "apogee_km": 475.7637458366962,
      "perigee_km": 474.62431101991024,
      "latitude_deg": 5.986574410955329e-06,
      "longitude_deg": 111.36231434116068,
      "height_km": 476.1083452568207,
      "semi_major_axis_km": 6853.331028428303,
      "eccentricity": 8.313e-05,
      "inclination_deg": 53.1581,
      "raan_deg": 277.3736,
      "arg_perigee_deg": 91.5948,
      "mean_anomaly_deg": 268.5148,
      "mean_motion_rev_day": 15.30207047
    },
    {
      "epoch": "2026-03-30T12:41:10.152672Z",
      "apogee_km": 475.64119455710807,
      "perigee_km": 474.7168192940944,
      "latitude_deg": -4.4705503997637495e-05,
      "longitude_deg": -103.56956272176019,
      "height_km": 475.88073364124205,
      "semi_major_axis_km": 6853.316006925601,
      "eccentricity": 6.744e-05,
      "inclination_deg": 53.1577,
      "raan_deg": 274.6418,
      "arg_perigee_deg": 64.7725,
      "mean_anomaly_deg": 295.3345,
      "mean_motion_rev_day": 15.30212078
    },
    {
      "epoch": "2026-03-30T18:57:22.864608Z",
      "apogee_km": 475.7602352696467,
      "perigee_km": 474.6105219074143,
      "latitude_deg": 3.768668079046528e-05,
      "longitude_deg": 160.90662469866405,
      "height_km": 475.96005480810993,
      "semi_major_axis_km": 6853.32237858853,
      "eccentricity": 8.388e-05,
      "inclination_deg": 53.1581,
      "raan_deg": 273.4284,
      "arg_perigee_deg": 77.5635,
      "mean_anomaly_deg": 282.546,
      "mean_motion_rev_day": 15.30209944
    },
    {
      "epoch": "2026-03-31T12:11:57.983136Z",
      "apogee_km": 475.7610259237463,
      "perigee_km": 474.5797898589208,
      "latitude_deg": 5.439994126879774e-06,
      "longitude_deg": -101.78457405251793,
      "height_km": 475.87500245352817,
      "semi_major_axis_km": 6853.307407891333,
      "eccentricity": 8.618e-05,
      "inclination_deg": 53.1579,
      "raan_deg": 270.0917,
      "arg_perigee_deg": 70.837,
      "mean_anomaly_deg": 289.2724,
      "mean_motion_rev_day": 15.30214958
    },
    {
      "epoch": "2026-04-01T17:58:58.772640Z",
      "apogee_km": 475.80235835672556,
      "perigee_km": 474.44404218503223,
      "latitude_deg": -8.445862499178863e-08,
      "longitude_deg": 164.47436680181954,
      "height_km": 476.124484844179,
      "semi_major_axis_km": 6853.260200270879,
      "eccentricity": 9.91e-05,
      "inclination_deg": 53.1593,
      "raan_deg": 264.3271,
      "arg_perigee_deg": 98.713,
      "mean_anomaly_deg": 261.3983,
      "mean_motion_rev_day": 15.30230769
    },
    {
      "epoch": "2026-04-02T17:29:45.849696Z",
      "apogee_km": 476.25229697538543,
      "perigee_km": 474.05239109595004,
      "latitude_deg": -1.3216332263386804e-05,
      "longitude_deg": 166.26055567798832,
      "height_km": 476.36210875051336,
      "semi_major_axis_km": 6853.289344035667,
      "eccentricity": 0.0001605,
      "inclination_deg": 53.1594,
      "raan_deg": 259.7751,
      "arg_perigee_deg": 106.4848,
      "mean_anomaly_deg": 253.6329,
      "mean_motion_rev_day": 15.30221008
    },
    {
      "epoch": "2026-04-02T17:29:45.850560Z",
      "apogee_km": 476.2522284424922,
      "perigee_km": 474.0524596288442,
      "latitude_deg": -1.233472381625264e-05,
      "longitude_deg": 166.2605527249834,
      "height_km": 476.3620893043785,
      "semi_major_axis_km": 6853.289344035667,
      "eccentricity": 0.00016049,
      "inclination_deg": 53.1594,
      "raan_deg": 259.7751,
      "arg_perigee_deg": 106.4848,
      "mean_anomaly_deg": 253.6329,
      "mean_motion_rev_day": 15.30221008
    },
    {
      "epoch": "2026-04-03T20:08:41.161056Z",
      "apogee_km": 475.6486725083478,
      "perigee_km": 474.8440852996646,
      "latitude_deg": 7.037045822909787e-06,
      "longitude_deg": 120.27958377183946,
      "height_km": 476.1253935413092,
      "semi_major_axis_km": 6853.383378904005,
      "eccentricity": 5.87e-05,
      "inclination_deg": 53.1616,
      "raan_deg": 254.619,
      "arg_perigee_deg": 87.1314,
      "mean_anomaly_deg": 272.9754,
      "mean_motion_rev_day": 15.30189514
    },
    {
      "epoch": "2026-04-04T16:31:22.533600Z",
      "apogee_km": 475.73053582238936,
      "perigee_km": 474.69019769211627,
      "latitude_deg": 7.37925750540654e-06,
      "longitude_deg": 169.82529650706826,
      "height_km": 476.04044935786396,
      "semi_major_axis_km": 6853.3473667572525,
      "eccentricity": 7.59e-05,
      "inclination_deg": 53.1592,
      "raan_deg": 250.674,
      "arg_perigee_deg": 82.4219,
      "mean_anomaly_deg": 277.6868,
      "mean_motion_rev_day": 15.30201575
    }
  ]
}